OBJECT_NAME,OBJECT_ID,EPOCH,MEAN_MOTION,ECCENTRICITY,INCLINATION,RA_OF_ASC_NODE,ARG_OF_PERICENTER,MEAN_ANOMALY,EPHEMERIS_TYPE,CLASSIFICATION_TYPE,NORAD_CAT_ID,ELEMENT_SET_NO,REV_AT_EPOCH,BSTAR,MEAN_MOTION_DOT,MEAN_MOTION_DDOT
SL-16 R/B,1994-077B,2026-06-04T06:14:16.662048,14.15575243,.0002449,70.9810,170.3596,335.9382,24.1626,0,U,23405,999,62848,-.1085609E-3,-.26E-5,0
ARIANE 40+ R/B,1995-021B,2026-06-04T18:19:46.654752,14.39826446,.00057489,98.4413,226.0177,234.4050,236.5638,0,U,23561,999,63177,.11461626E-3,.316E-5,0
SL-16 R/B,1995-058B,2026-06-04T16:40:55.492608,14.15505961,.00132099,71.0219,357.5876,337.2430,22.8106,0,U,23705,999,58016,-.94421987E-4,-.232E-5,0
SL-16 R/B,1996-051B,2026-06-03T15:30:51.660864,14.12441490,.0014292,70.7634,353.3077,357.7855,2.3198,0,U,24298,999,53378,.10371E-3,.142E-5,0
ORBVIEW 2 (SEASTAR),1997-037A,2026-06-04T01:20:28.870080,14.35546462,.00027424,98.8678,321.7120,143.6285,216.5086,0,U,24883,999,52086,.12358423E-3,.309E-5,0
SL-16 R/B,1998-043G,2026-06-04T17:36:29.287584,14.26066405,.00108007,98.8358,109.7861,119.0141,241.2122,0,U,25400,999,45139,.46835548E-4,.67E-6,0
SL-16 R/B,1998-045B,2026-06-04T17:36:54.967392,14.16203597,.00095424,71.0121,358.5203,256.1993,103.8068,0,U,25407,999,43942,.1340328E-3,.218E-5,0
ISS (ZARYA),1998-067A,2026-06-04T17:47:31.539264,15.49603626,.00070311,51.6329,1.7083,132.5880,227.5703,0,U,25544,999,56982,.15298287E-3,.8168E-4,0
CZ-4B R/B,1999-025C,2026-06-04T17:33:24.448608,14.18281291,.00382671,98.6489,197.8830,94.4719,16.8509,0,U,25732,999,40050,.52508512E-4,.66E-6,0
OKEAN-O,1999-039A,2026-06-04T15:23:07.518336,14.80451870,.00018926,97.9320,214.5823,82.3513,277.7914,0,U,25860,999,44725,.10770797E-3,.771E-5,0
SL-16 R/B,1999-039B,2026-06-04T17:48:33.270336,14.81832711,.00142158,97.9843,214.6399,340.1630,19.9028,0,U,25861,999,44975,.85150165E-4,.62E-5,0
DELTA 2 R/B,1999-041E,2026-06-04T17:14:09.465504,14.11992743,.05010605,51.7658,313.6046,245.1619,109.6424,0,U,25876,999,37532,.15724112E-3,.743E-5,0
HELIOS 1B,1999-064A,2026-06-04T17:42:58.917888,14.87972682,.0002276,98.1624,60.5173,108.6312,251.5150,0,U,25977,999,69820,.1954552E-3,.1734E-4,0
TERRA,1999-068A,2026-06-04T21:46:41.152800,14.61093250,.00008195,97.9461,205.9400,258.4434,222.1880,0,U,25994,999,40781,.10568133E-3,.475E-5,0
SL-16 R/B,2000-006B,2026-06-03T15:23:50.523072,14.15837347,.0014836,71.0033,277.1057,45.0794,315.1530,0,U,26070,999,36072,.1731E-4,-.14E-6,0
TITAN 4B R/B,2000-047B,2026-06-04T20:58:01.390080,15.10123554,.00454089,67.9870,155.2312,299.5078,60.1547,0,U,26474,999,40607,.22816378E-3,.3681E-4,0
ENVISAT,2002-009A,2026-06-04T17:37:20.762976,14.39061785,.00013395,98.3829,107.3308,91.9128,331.7853,0,U,27386,999,27169,.5132639E-4,.116E-5,0
IDEFIX & ARIANE 42P R/B,2002-021B,2026-06-04T18:06:04.079232,14.31076217,.00107112,98.5940,93.3721,294.4944,65.5122,0,U,27422,999,25647,.12087746E-3,.275E-5,0
AQUA,2002-022A,2026-06-04T22:35:18.016800,14.62139093,.00015775,98.4271,124.9800,56.3651,2.8907,0,U,27424,999,28148,.20237252E-3,.968E-5,0
CZ-4B R/B,2002-024C,2026-06-04T21:13:08.386176,14.14562334,.00509477,98.8705,208.7834,134.5076,38.6148,0,U,27432,999,24156,.4972849E-4,.53E-6,0
MIDORI II (ADEOS-II),2002-056A,2026-06-04T17:56:46.085568,14.29342653,.00021816,98.7873,114.9024,94.4192,265.7239,0,U,27597,999,22273,.14549745E-3,.325E-5,0
H-2A R/B,2002-056E,2026-06-03T11:35:20.537376,14.33815770,.00688353,98.3306,111.6572,266.0531,202.3504,0,U,27601,999,22640,.10004215E-3,.243E-5,0
CZ-4B R/B,2003-049C,2026-06-03T14:47:02.400864,14.55090366,.00475034,98.6894,152.9224,330.8112,29.0430,0,U,28059,999,19909,.96037238E-4,.368E-5,0
CZ-2C R/B,2004-012C,2026-06-04T17:30:35.058816,15.76591401,.00088026,97.7083,229.9670,340.1675,19.9247,0,U,28222,999,21793,.59018765E-3,.94695E-3,0
SL-16 R/B,2004-021B,2026-06-04T03:36:25.414560,14.14613234,.00074514,71.0025,51.0491,269.3799,90.6469,0,U,28353,999,13506,-.23412535E-4,-.93E-6,0
CZ-4B R/B,2004-035C,2026-06-04T15:29:13.560576,15.30431238,.00314622,97.3368,188.8616,23.0003,337.2639,0,U,28415,999,19320,.30679628E-3,.909E-4,0
CZ-2C R/B,2004-046B,2026-06-04T05:16:39.916416,14.27023707,.01380937,98.1954,64.8099,258.9014,99.6614,0,U,28480,999,12084,.64084061E-4,.13E-5,0
ARIANE 5 R/B,2004-049H,2026-06-04T01:29:43.355040,14.85429493,.0085158,98.2713,326.8091,71.4879,289.5565,0,U,28499,999,15861,.11756938E-3,.1017E-4,0
CZ-2D R/B,2005-024B,2026-06-04T00:23:08.744352,15.68086346,.00054575,97.3490,173.8010,82.9591,277.2290,0,U,28738,999,15327,.50505645E-3,.56235E-3,0
ALOS (DAICHI),2006-002A,2026-06-03T11:27:14.744736,14.70020825,.0001949,98.1317,110.0882,66.5331,293.6079,0,U,28931,999,8608,.22358505E-3,.1292E-4,0
