SL-16 R/B               
1 23405U 94077B   26155.25991507 -.00000260  00000+0 -10856-3 0  9990
2 23405  70.9810 170.3596 0002449 335.9382  24.1626 14.15575243628480
ARIANE 40+ R/B          
1 23561U 95021B   26155.76373443  .00000316  00000+0  11462-3 0  9996
2 23561  98.4413 226.0177 0005748 234.4050 236.5638 14.39826446631779
SL-16 R/B               
1 23705U 95058B   26155.69508672 -.00000232  00000+0 -94422-4 0  9999
2 23705  71.0219 357.5876 0013209 337.2430  22.8106 14.15505961580163
SL-16 R/B               
1 24298U 96051B   26154.64643126  .00000142  00000+0  10371-3 0  9997
2 24298  70.7634 353.3077 0014292 357.7855   2.3198 14.12441490533789
ORBVIEW 2 (SEASTAR)     
1 24883U 97037A   26155.05588970  .00000309  00000+0  12358-3 0  9995
2 24883  98.8678 321.7120 0002742 143.6285 216.5086 14.35546462520862
SL-16 R/B               
1 25400U 98043G   26155.73367231  .00000067  00000+0  46836-4 0  9999
2 25400  98.8358 109.7861 0010800 119.0141 241.2122 14.26066405451392
SL-16 R/B               
1 25407U 98045B   26155.73396953  .00000218  00000+0  13403-3 0  9992
2 25407  71.0121 358.5203 0009542 256.1993 103.8068 14.16203597439429
ISS (ZARYA)             
1 25544U 98067A   26155.74133726  .00008168  00000+0  15298-3 0  9992
2 25544  51.6329   1.7083 0007031 132.5880 227.5703 15.49603626569823
CZ-4B R/B               
1 25732U 99025C   26155.73153297  .00000066  00000+0  52509-4 0  9996
2 25732  98.6489 197.8830 0038267  94.4719  16.8509 14.18281291400506
OKEAN-O                 
1 25860U 99039A   26155.64105924  .00000771  00000+0  10771-3 0  9994
2 25860  97.9320 214.5823 0001892  82.3513 277.7914 14.80451870447257
SL-16 R/B               
1 25861U 99039B   26155.74205174  .00000620  00000+0  85150-4 0  9991
2 25861  97.9843 214.6399 0014215 340.1630  19.9028 14.81832711449752
DELTA 2 R/B             
1 25876U 99041E   26155.71816511  .00000743  00000+0  15724-3 0  9995
2 25876  51.7658 313.6046 0501060 245.1619 109.6424 14.11992743375322
HELIOS 1B               
1 25977U 99064A   26155.73818192  .00001734  00000+0  19546-3 0  9998
2 25977  98.1624  60.5173 0002276 108.6312 251.5150 14.87972682698200
TERRA                   
1 25994U 99068A   26155.90742075  .00000475  00000+0  10568-3 0  9992
2 25994  97.9461 205.9400 0000819 258.4434 222.1880 14.61093250407819
SL-16 R/B               
1 26070U 00006B   26154.64155698 -.00000014  00000+0  17310-4 0  9994
2 26070  71.0033 277.1057 0014836  45.0794 315.1530 14.15837347360720
TITAN 4B R/B            
1 26474U 00047B   26155.87362720  .00003681  00000+0  22816-3 0  9997
2 26474  67.9870 155.2312 0045408 299.5078  60.1547 15.10123554406079
ENVISAT                 
1 27386U 02009A   26155.73426809  .00000116  00000+0  51326-4 0  9993
2 27386  98.3829 107.3308 0001339  91.9128 331.7853 14.39061785271694
IDEFIX & ARIANE 42P R/B 
1 27422U 02021B   26155.75421388  .00000275  00000+0  12088-3 0  9994
2 27422  98.5940  93.3721 0010711 294.4944  65.5122 14.31076217256472
AQUA                    
1 27424U 02022A   26155.94118075  .00000968  00000+0  20237-3 0  9998
2 27424  98.4271 124.9800 0001577  56.3651   2.8907 14.62139093281489
CZ-4B R/B               
1 27432U 02024C   26155.88412484  .00000053  00000+0  49728-4 0  9995
2 27432  98.8705 208.7834 0050947 134.5076  38.6148 14.14562334241561
MIDORI II (ADEOS-II)    
1 27597U 02056A   26155.74775562  .00000325  00000+0  14550-3 0  9992
2 27597  98.7873 114.9024 0002181  94.4192 265.7239 14.29342653222735
H-2A R/B                
1 27601U 02056E   26154.48287659  .00000243  00000+0  10004-3 0  9992
2 27601  98.3306 111.6572 0068835 266.0531 202.3504 14.33815770226402
CZ-4B R/B               
1 28059U 03049C   26154.61600001  .00000368  00000+0  96037-4 0  9997
2 28059  98.6894 152.9224 0047503 330.8112  29.0430 14.55090366199097
CZ-2C R/B               
1 28222U 04012C   26155.72957244  .00094695  00000+0  59019-3 0  9991
2 28222  97.7083 229.9670 0008802 340.1675  19.9247 15.76591401217934
SL-16 R/B               
1 28353U 04021B   26155.15029415 -.00000093  00000+0 -23413-4 0  9994
2 28353  71.0025  51.0491 0007451 269.3799  90.6469 14.14613234135068
CZ-4B R/B               
1 28415U 04035C   26155.64529584  .00009090  00000+0  30680-3 0  9991
2 28415  97.3368 188.8616 0031462  23.0003 337.2639 15.30431238193208
CZ-2C R/B               
1 28480U 04046B   26155.21990644  .00000130  00000+0  64084-4 0  9999
2 28480  98.1954  64.8099 0138093 258.9014  99.6614 14.27023707120842
ARIANE 5 R/B            
1 28499U 04049H   26155.06230735  .00001017  00000+0  11757-3 0  9996
2 28499  98.2713 326.8091 0085158  71.4879 289.5565 14.85429493158616
CZ-2D R/B               
1 28738U 05024B   26155.01607343  .00056235  00000+0  50506-3 0  9991
2 28738  97.3490 173.8010 0005457  82.9591 277.2290 15.68086346153271
ALOS (DAICHI)           
1 28931U 06002A   26154.47725399  .00001292  00000+0  22359-3 0  9992
2 28931  98.1317 110.0882 0001949  66.5331 293.6079 14.70020825 86088
